YAOGAN-43 01D           
1 60461U 24148D   26068.43560480  .00010676  00000+0  37766-3 0  9999
2 60461  35.0010  61.7102 0002556 326.2473  33.8080 15.28369377 87008
STARLINK-32489          
1 61893U 24204V   26068.44643085  .00001052  00000+0  47663-4 0  9992
2 61893  53.1582 127.9700 0001427  94.4203 265.6961 15.30194091 75050
