[{"OBJECT_NAME":"YAOGAN-43 01D","OBJECT_ID":"2024-148D","EPOCH":"2026-03-09T10:27:16.254720","MEAN_MOTION":15.28369377,"ECCENTRICITY":0.00025569,"INCLINATION":35.001,"RA_OF_ASC_NODE":61.7102,"ARG_OF_PERICENTER":326.2473,"MEAN_ANOMALY":33.808,"EPHEMERIS_TYPE":0,"CLASSIFICATION_TYPE":"U","NORAD_CAT_ID":60461,"ELEMENT_SET_NO":999,"REV_AT_EPOCH":8700,"BSTAR":0.00037765912,"MEAN_MOTION_DOT":0.00010676,"MEAN_MOTION_DDOT":0},{"OBJECT_NAME":"STARLINK-32489","OBJECT_ID":"2024-204V","EPOCH":"2026-03-09T10:42:51.625440","MEAN_MOTION":15.30194091,"ECCENTRICITY":0.00014271,"INCLINATION":53.1582,"RA_OF_ASC_NODE":127.97,"ARG_OF_PERICENTER":94.4203,"MEAN_ANOMALY":265.6961,"EPHEMERIS_TYPE":0,"CLASSIFICATION_TYPE":"U","NORAD_CAT_ID":61893,"ELEMENT_SET_NO":999,"REV_AT_EPOCH":7505,"BSTAR":4.7662528e-5,"MEAN_MOTION_DOT":1.052e-5,"MEAN_MOTION_DDOT":0}]
